1 33497U 09002F   11210.86282769 +.00000005 +00000-0 +92761-5 0  9995
2 33497 098.0825 317.9883 0001542 184.3583 175.7611 14.67834857134585
1 33497U 09002F   11211.34000666  .00000048  00000-0  16815-4 0  9995
2 33497 098.0826 318.4593 0001536 183.2852 176.8369 14.67835295134657
1 33497U 09002F   11211.74901658 +.00000115 +00000-0 +28613-4 0  9994
2 33497 098.0829 318.8632 0001583 180.6863 179.4359 14.67835777134713
1 33497U 09002F   11212.36253198  .00000166  00000-0  37446-4 0  9992
2 33497 098.0829 319.4689 0001611 179.2770 180.8453 14.67836088134802
1 33497U 09002F   11212.90787861 +.00000105 +00000-0 +26863-4 0  9995
2 33497 098.0832 320.0074 0001572 178.0225 182.0964 14.67835895134884
1 33497U 09002F   11213.45322595  .00000168  00000-0  37881-4 0  9996
2 33497 098.0832 320.5457 0001643 176.6178 183.5051 14.67836391134968
1 33497U 09002F   11213.79406746 +.00000075 +00000-0 +21511-4 0  9994
2 33497 098.0833 320.8825 0001665 176.3910 183.7306 14.67836198135013
1 33497U 09002F   11214.47575087  .00000088  00000-0  23845-4 0  9991
2 33497 098.0833 321.5556 0001685 174.9109 185.2114 14.67836513135114
1 33497U 09002F   11214.88476093 +.00000173 +00000-0 +38703-4 0  9997
2 33497 098.0838 321.9598 0001722 172.4079 187.7170 14.67837073135177
1 33497U 09002F   11215.49827524  .00000247  00000-0  51672-4 0  9996
2 33497 098.0839 322.5656 0001783 171.0933 189.0302 14.67837630135262
1 33497U 09002F   11215.90728501 +.00000239 +00000-0 +50393-4 0  9997
2 33497 098.0840 322.9696 0001742 169.9523 190.1709 14.67837777135321
1 33497U 09002F   11216.72530481  .00000232  00000-0  49095-4 0  9996
2 33497 098.0840 323.7774 0001829 166.5923 193.5341 14.67838174135444
1 33497U 09002F   11217.88416575  .00000186  00000-0  41095-4 0  9991
2 33497 098.0842 324.9219 0001888 162.8471 197.2818 14.67838472135615
1 33497U 09002F   11218.70218423 +.00000260 +00000-0 +53947-4 0  9997
2 33497 098.0841 325.7298 0001988 161.2035 198.9255 14.67839227135735
1 33497U 09002F   11219.04302510  .00000206  00000-0  44594-4 0  9994
2 33497 098.0841 326.0663 0001990 159.9911 200.1343 14.67838984135783
1 33497U 09002F   11219.86104387 +.00000239 +00000-0 +50364-4 0  9994
2 33497 098.0837 326.8739 0002057 158.7153 201.4141 14.67839716135908
1 33497U 09002F   11220.06554841  .00000255  00000-0  53182-4 0  9991
2 33497 098.0837 327.0757 0002044 157.9228 202.2065 14.67839897135938
1 33497U 09002F   11220.74722980 +.00000269 +00000-0 +55487-4 0  9992
2 33497 098.0836 327.7487 0002115 157.3329 202.7971 14.67840518136034
1 33497U 09002F   11221.49707934  .00000322  00000-0  64890-4 0  9995
2 33497 098.0836 328.4891 0002171 155.4468 204.6846 14.67841260136145
1 33497U 09002F   11221.76975174 +.00000251 +00000-0 +52354-4 0  9991
2 33497 098.0835 328.7582 0002145 154.9442 205.1856 14.67841108136183
1 33497U 09002F   11222.79227441  .00000085  00000-0  23254-4 0  9994
2 33497 098.0831 329.7679 0002237 153.0586 207.0731 14.67840798136332
1 33497U 09002F   11223.81479618  .00000124  00000-0  30112-4 0  9998
2 33497 098.0832 330.7774 0002309 150.7827 209.3518 14.67841530136482
1 33497U 09002F   11224.49647695 +.00000215 +00000-0 +46109-4 0  9999
2 33497 098.0831 331.4504 0002305 148.4988 211.6354 14.67842141136582
1 33497U 09002F   11224.90548549  .00000157  00000-0  35872-4 0  9993
2 33497 098.0835 331.8545 0002308 147.2531 212.8797 14.67841945136641
1 33497U 09002F   11225.79167117 +.00000104 +00000-0 +26626-4 0  9998
2 33497 098.0838 332.7297 0002375 145.2159 214.9207 14.67842113136777
1 33497U 09002F   11225.99617534  .00000081  00000-0  22608-4 0  9993
2 33497 098.0841 332.9317 0002406 144.3842 215.7509 14.67841949136804
1 33497U 09002F   11226.88236035 +.00000166 +00000-0 +37554-4 0  9995
2 33497 098.0845 333.8071 0002453 141.5622 218.5772 14.67842816136933
1 33497U 09002F   11227.15503231  .00000154  00000-0  35401-4 0  9997
2 33497 098.0846 334.0763 0002466 140.7766 219.3613 14.67842849136972
1 33497U 09002F   11227.76854461 +.00000161 +00000-0 +36639-4 0  9990
2 33497 098.0850 334.6820 0002461 139.7997 220.3381 14.67843094137064
1 33497U 09002F   11228.31388931  .00000169  00000-0  38041-4 0  9993
2 33497 098.0852 335.2207 0002460 137.2761 222.8636 14.67843295137145
1 33497U 09002F   11228.85923350 +.00000090 +00000-0 +24144-4 0  9994
2 33497 098.0854 335.7594 0002426 135.7081 224.4307 14.67843155137228
1 33497U 09002F   11229.47274565  .00000090  00000-0  24125-4 0  9999
2 33497 098.0850 336.3653 0002398 133.5697 226.5702 14.67843490137318
1 33497U 09002F   11229.74541783 +.00000154 +00000-0 +35475-4 0  9999
2 33497 098.0851 336.6346 0002462 133.0697 227.0733 14.67843967137351
1 33497U 09002F   11230.90427340 +.00000148 +00000-0 +34341-4 0  9995
2 33497 098.0853 337.7794 0002457 130.4301 229.7109 14.67844243137522
1 33497U 09002F   11231.04060957  .00000187  00000-0  41232-4 0  9998
2 33497 098.0850 337.9141 0002425 129.5924 230.5495 14.67844430137540
1 33497U 09002F   11231.85862494 +.00000091 +00000-0 +24302-4 0  9996
2 33497 098.0848 338.7221 0002545 130.4096 229.7324 14.67844458137663
1 33497U 09002F   11232.19946496  .00000126  00000-0  30545-4 0  9994
2 33497 098.0844 339.0585 0002548 130.0272 230.1169 14.67844772137719
1 33497U 09002F   11232.74480823 +.00000190 +00000-0 +41715-4 0  9994
2 33497 098.0841 339.5972 0002624 129.2070 230.9382 14.67845394137796
1 33497U 09002F   11233.35831956  .00000223  00000-0  47504-4 0  9998
2 33497 098.0840 340.2031 0002635 128.4421 231.7030 14.67845719137883
1 33497U 09002F   11233.76732688 +.00000191 +00000-0 +41834-4 0  9999
2 33497 098.0839 340.6068 0002633 127.2003 232.9438 14.67845785137941
1 33497U 09002F   11234.38083841  .00000139  00000-0  32770-4 0  9999
2 33497 098.0836 341.2127 0002740 126.8595 233.2852 14.67845661138039
1 33497U 09002F   11234.85801403 +.00000049 +00000-0 +17070-4 0  9999
2 33497 098.0835 341.6838 0002710 125.2100 234.9343 14.67845393138106
1 33497U 09002F   11235.40335778  .00000089  00000-0  24037-4 0  9993
2 33497 098.0834 342.2220 0002720 124.5523 235.5967 14.67845883138180
1 33497U 09002F   11235.47152515 +.00000091 +00000-0 +24456-4 0  9994
2 33497 098.0833 342.2893 0002719 124.3258 235.8205 14.67845915138191
1 33497U 09002F   11236.42587516  .00000222  00000-0  47391-4 0  9992
2 33497 098.0835 343.2317 0002834 123.2160 236.9326 14.67846980138338
1 33497U 09002F   11236.76671429 +.00000210 +00000-0 +45245-4 0  9999
2 33497 098.0835 343.5682 0002832 122.3583 237.7898 14.67847140138380
1 33497U 09002F   11237.44839283  .00000216  00000-0  46342-4 0  9994
2 33497 098.0839 344.2415 0002807 119.2632 240.8842 14.67847367138484
1 33497U 09002F   11237.72106441 +.00000238 +00000-0 +50160-4 0  9995
2 33497 098.0839 344.5107 0002843 118.7468 241.4031 14.67847664138528
1 33497U 09002F   11238.67541388  .00000172  00000-0  38630-4 0  9998
2 33497 098.0844 345.4531 0002833 116.7962 243.3537 14.67847878138665
1 33497U 09002F   11238.81174944 +.00000164 +00000-0 +37180-4 0  9994
2 33497 098.0846 345.5879 0002849 117.1563 242.9941 14.67847955138684
1 33497U 09002F   11239.76609864  .00000172  00000-0  38634-4 0  9997
2 33497 098.0851 346.5304 0002910 115.5426 244.6085 14.67848358138825
1 33497U 09002F   11240.85678294 +.00000166 +00000-0 +37563-4 0  9995
2 33497 098.0856 347.6080 0002896 112.5501 247.6003 14.67848792138989
1 33497U 09002F   11241.12945416  .00000163  00000-0  36957-4 0  9992
2 33497 098.0856 347.8772 0002895 111.8922 248.2593 14.67848917139023
1 33497U 09002F   11241.74296352 +.00000276 +00000-0 +56784-4 0  9993
2 33497 098.0858 348.4832 0002900 109.6297 250.5235 14.67849931139112
1 33497U 09002F   11242.35647280  .00000248  00000-0  51830-4 0  9997
2 33497 098.0861 349.0893 0002935 109.7655 250.3868 14.67850070139203
1 33497U 09002F   11242.83364676 +.00000227 +00000-0 +48213-4 0  9993
2 33497 098.0865 349.5607 0002940 108.5608 251.5909 14.67850171139274
1 33497U 09002F   11243.37898861  .00000167  00000-0  37709-4 0  9992
2 33497 098.0867 350.0994 0002968 107.0363 253.1159 14.67850130139353
1 33497U 09002F   11243.85616262 +.00000130 +00000-0 +31141-4 0  9992
2 33497 098.0866 350.5709 0002957 106.2310 253.9221 14.67850227139425
1 33497U 09002F   11244.40150418  .00000141  00000-0  33137-4 0  9999
2 33497 098.0863 351.1094 0002929 104.0290 256.1252 14.67850597139506
1 33497U 09002F   11244.87867767 +.00000202 +00000-0 +43809-4 0  9997
2 33497 098.0865 351.5809 0002986 103.8107 256.3444 14.67851112139579
1 33497U 09002F   11245.42401854  .00000222  00000-0  47248-4 0  9993
2 33497 098.0862 352.1193 0003003 104.3469 255.8072 14.67851451139653
1 33497U 09002F   11245.76485668 +.00000206 +00000-0 +44462-4 0  9992
2 33497 098.0862 352.4558 0003000 103.2206 256.9333 14.67851582139708
1 33497U 09002F   11246.44653298  .00000248  00000-0  51883-4 0  9995
2 33497 098.0859 353.1291 0003012 101.5945 258.5599 14.67852091139809
1 33497U 09002F   11246.78737101 +.00000201 +00000-0 +43578-4 0  9999
2 33497 098.0859 353.4657 0003002 100.8773 259.2771 14.67852135139852
1 33497U 09002F   11247.80988457  .00000248  00000-0  51878-4 0  9998
2 33497 098.0855 354.4756 0002980 097.0488 263.1061 14.67853088140006
1 33497U 09002F   11248.90056480 +.00000328 +00000-0 +65940-4 0  9996
2 33497 098.0853 355.5527 0002988 092.9499 267.2027 14.67854109140165
1 33497U 09002F   11249.17323524  .00000295  00000-0  60083-4 0  9998
2 33497 098.0853 355.8218 0003006 092.8164 267.3374 14.67854086140200
1 33497U 09002F   11249.71857562 +.00000278 +00000-0 +57105-4 0  9994
2 33497 098.0848 356.3605 0003024 093.1096 267.0462 14.67854376140283
1 33497U 09002F   11250.33208326  .00000222  00000-0  47317-4 0  9995
2 33497 098.0849 356.9665 0002969 090.1391 270.0174 14.67854633140378
1 33497U 09002F   11250.80925541 +.00000236 +00000-0 +49830-4 0  9999
2 33497 098.0849 357.4377 0002989 089.9442 270.2114 14.67854954140449
